[{"OBJECT_NAME":"ONEWEB-0082","OBJECT_ID":"2020-020AE","EPOCH":"2025-10-19T07:28:51.581568","MEAN_MOTION":13.11415234,"ECCENTRICITY":0.00014038,"INCLINATION":87.8841,"RA_OF_ASC_NODE":69.0038,"ARG_OF_PERICENTER":102.4664,"MEAN_ANOMALY":257.6621,"EPHEMERIS_TYPE":0,"CLASSIFICATION_TYPE":"U","NORAD_CAT_ID":45452,"ELEMENT_SET_NO":999,"REV_AT_EPOCH":27110,"BSTAR":0.00029630448,"MEAN_MOTION_DOT":1.18e-6,"MEAN_MOTION_DDOT":0},{"OBJECT_NAME":"ONEWEB-0050","OBJECT_ID":"2020-020AF","EPOCH":"2025-10-19T08:00:03.000384","MEAN_MOTION":14.89108055,"ECCENTRICITY":0.00054963,"INCLINATION":88.7671,"RA_OF_ASC_NODE":266.1705,"ARG_OF_PERICENTER":104.4775,"MEAN_ANOMALY":165.7054,"EPHEMERIS_TYPE":0,"CLASSIFICATION_TYPE":"U","NORAD_CAT_ID":45453,"ELEMENT_SET_NO":999,"REV_AT_EPOCH":578,"BSTAR":0.0077911045,"MEAN_MOTION_DOT":0.00074198,"MEAN_MOTION_DDOT":0},{"OBJECT_NAME":"ONEWEB-0034","OBJECT_ID":"2020-020AG","EPOCH":"2025-10-19T02:29:45.641472","MEAN_MOTION":13.1141699,"ECCENTRICITY":0.00015698,"INCLINATION":87.8831,"RA_OF_ASC_NODE":69.0641,"ARG_OF_PERICENTER":97.6202,"MEAN_ANOMALY":262.5104,"EPHEMERIS_TYPE":0,"CLASSIFICATION_TYPE":"U","NORAD_CAT_ID":45454,"ELEMENT_SET_NO":999,"REV_AT_EPOCH":27099,"BSTAR":-0.0016572853,"MEAN_MOTION_DOT":-5.75e-6,"MEAN_MOTION_DDOT":0},{"OBJECT_NAME":"ONEWEB-0060","OBJECT_ID":"2020-020AH","EPOCH":"2025-10-19T07:17:52.435968","MEAN_MOTION":13.11416514,"ECCENTRICITY":0.00010499,"INCLINATION":87.882,"RA_OF_ASC_NODE":69.0476,"ARG_OF_PERICENTER":148.5179,"MEAN_ANOMALY":211.6012,"EPHEMERIS_TYPE":0,"CLASSIFICATION_TYPE":"U","NORAD_CAT_ID":45455,"ELEMENT_SET_NO":999,"REV_AT_EPOCH":27097,"BSTAR":0.0010662698,"MEAN_MOTION_DOT":3.91e-6,"MEAN_MOTION_DDOT":0},{"OBJECT_NAME":"ONEWEB-0086","OBJECT_ID":"2020-020AJ","EPOCH":"2025-10-19T06:47:21.541344","MEAN_MOTION":13.11418693,"ECCENTRICITY":0.00017204,"INCLINATION":87.8833,"RA_OF_ASC_NODE":69.0254,"ARG_OF_PERICENTER":123.2302,"MEAN_ANOMALY":236.8991,"EPHEMERIS_TYPE":0,"CLASSIFICATION_TYPE":"U","NORAD_CAT_ID":45456,"ELEMENT_SET_NO":999,"REV_AT_EPOCH":27103,"BSTAR":0.00077845444,"MEAN_MOTION_DOT":2.89e-6,"MEAN_MOTION_DDOT":0},{"OBJECT_NAME":"ONEWEB-0088","OBJECT_ID":"2020-020AK","EPOCH":"2025-10-19T02:35:53.347776","MEAN_MOTION":13.11415597,"ECCENTRICITY":0.0001501,"INCLINATION":87.8841,"RA_OF_ASC_NODE":69.0101,"ARG_OF_PERICENTER":94.3022,"MEAN_ANOMALY":265.8277,"EPHEMERIS_TYPE":0,"CLASSIFICATION_TYPE":"U","NORAD_CAT_ID":45457,"ELEMENT_SET_NO":999,"REV_AT_EPOCH":27094,"BSTAR":-0.0015601409,"MEAN_MOTION_DOT":-5.4e-6,"MEAN_MOTION_DDOT":0},{"OBJECT_NAME":"ONEWEB-0102","OBJECT_ID":"2020-100A","EPOCH":"2025-10-19T07:14:16.256256","MEAN_MOTION":13.12443178,"ECCENTRICITY":0.00018723,"INCLINATION":87.8963,"RA_OF_ASC_NODE":38.5378,"ARG_OF_PERICENTER":100.3835,"MEAN_ANOMALY":259.7505,"EPHEMERIS_TYPE":0,"CLASSIFICATION_TYPE":"U","NORAD_CAT_ID":47258,"ELEMENT_SET_NO":999,"REV_AT_EPOCH":23313,"BSTAR":0.0006114705,"MEAN_MOTION_DOT":2.33e-6,"MEAN_MOTION_DDOT":0},{"OBJECT_NAME":"ONEWEB-0109","OBJECT_ID":"2020-100B","EPOCH":"2025-10-19T07:25:56.578368","MEAN_MOTION":13.12443607,"ECCENTRICITY":0.00018335,"INCLINATION":87.8964,"RA_OF_ASC_NODE":38.5041,"ARG_OF_PERICENTER":102.8367,"MEAN_ANOMALY":257.2967,"EPHEMERIS_TYPE":0,"CLASSIFICATION_TYPE":"U","NORAD_CAT_ID":47259,"ELEMENT_SET_NO":999,"REV_AT_EPOCH":23296,"BSTAR":-0.00024492953,"MEAN_MOTION_DOT":-7.5e-7,"MEAN_MOTION_DDOT":0},{"OBJECT_NAME":"ONEWEB-0110","OBJECT_ID":"2020-100C","EPOCH":"2025-10-19T06:13:31.450656","MEAN_MOTION":13.12443944,"ECCENTRICITY":0.00016799,"INCLINATION":87.8961,"RA_OF_ASC_NODE":38.4979,"ARG_OF_PERICENTER":110.8459,"MEAN_ANOMALY":249.285,"EPHEMERIS_TYPE":0,"CLASSIFICATION_TYPE":"U","NORAD_CAT_ID":47260,"ELEMENT_SET_NO":999,"REV_AT_EPOCH":23312,"BSTAR":-0.0014488307,"MEAN_MOTION_DOT":-5.08e-6,"MEAN_MOTION_DDOT":0},{"OBJECT_NAME":"ONEWEB-0111","OBJECT_ID":"2020-100D","EPOCH":"2025-10-19T06:57:55.976544","MEAN_MOTION":13.12443349,"ECCENTRICITY":0.00017483,"INCLINATION":87.8964,"RA_OF_ASC_NODE":38.5094,"ARG_OF_PERICENTER":101.2151,"MEAN_ANOMALY":258.9174,"EPHEMERIS_TYPE":0,"CLASSIFICATION_TYPE":"U","NORAD_CAT_ID":47261,"ELEMENT_SET_NO":999,"REV_AT_EPOCH":23296,"BSTAR":0.0012258297,"MEAN_MOTION_DOT":4.54e-6,"MEAN_MOTION_DDOT":0},{"OBJECT_NAME":"ONEWEB-0114","OBJECT_ID":"2020-100E","EPOCH":"2025-10-19T07:42:17.240832","MEAN_MOTION":13.12442344,"ECCENTRICITY":0.00020266,"INCLINATION":87.8968,"RA_OF_ASC_NODE":38.4978,"ARG_OF_PERICENTER":97.5027,"MEAN_ANOMALY":262.6332,"EPHEMERIS_TYPE":0,"CLASSIFICATION_TYPE":"U","NORAD_CAT_ID":47262,"ELEMENT_SET_NO":999,"REV_AT_EPOCH":23292,"BSTAR":-0.0014323219,"MEAN_MOTION_DOT":-5.03e-6,"MEAN_MOTION_DDOT":0},{"OBJECT_NAME":"ONEWEB-0117","OBJECT_ID":"2020-100F","EPOCH":"2025-10-19T07:30:36.530784","MEAN_MOTION":13.12443931,"ECCENTRICITY":0.00016672,"INCLINATION":87.8963,"RA_OF_ASC_NODE":38.497,"ARG_OF_PERICENTER":102.3889,"MEAN_ANOMALY":257.7427,"EPHEMERIS_TYPE":0,"CLASSIFICATION_TYPE":"U","NORAD_CAT_ID":47263,"ELEMENT_SET_NO":999,"REV_AT_EPOCH":23293,"BSTAR":-0.00060375796,"MEAN_MOTION_DOT":-2.04e-6,"MEAN_MOTION_DDOT":0},{"OBJECT_NAME":"ONEWEB-0118","OBJECT_ID":"2020-100G","EPOCH":"2025-10-19T06:27:32.196096","MEAN_MOTION":13.12443642,"ECCENTRICITY":0.00018779,"INCLINATION":87.8965,"RA_OF_ASC_NODE":38.5047,"ARG_OF_PERICENTER":91.0055,"MEAN_ANOMALY":269.1288,"EPHEMERIS_TYPE":0,"CLASSIFICATION_TYPE":"U","NORAD_CAT_ID":47264,"ELEMENT_SET_NO":999,"REV_AT_EPOCH":23312,"BSTAR":-0.0005152611,"MEAN_MOTION_DOT":-1.73e-6,"MEAN_MOTION_DDOT":0},{"OBJECT_NAME":"ONEWEB-0119","OBJECT_ID":"2020-100H","EPOCH":"2025-10-19T07:07:15.688704","MEAN_MOTION":13.12443826,"ECCENTRICITY":0.00017302,"INCLINATION":87.8961,"RA_OF_ASC_NODE":38.5363,"ARG_OF_PERICENTER":102.6291,"MEAN_ANOMALY":257.5031,"EPHEMERIS_TYPE":0,"CLASSIFICATION_TYPE":"U","NORAD_CAT_ID":47265,"ELEMENT_SET_NO":999,"REV_AT_EPOCH":23310,"BSTAR":0.0010759539,"MEAN_MOTION_DOT":4.0e-6,"MEAN_MOTION_DDOT":0},{"OBJECT_NAME":"ONEWEB-0120","OBJECT_ID":"2020-100J","EPOCH":"2025-10-19T07:40:09.206400","MEAN_MOTION":13.12442107,"ECCENTRICITY":0.0001817,"INCLINATION":87.8965,"RA_OF_ASC_NODE":38.534,"ARG_OF_PERICENTER":100.1045,"MEAN_ANOMALY":260.0289,"EPHEMERIS_TYPE":0,"CLASSIFICATION_TYPE":"U","NORAD_CAT_ID":47266,"ELEMENT_SET_NO":999,"REV_AT_EPOCH":23313,"BSTAR":-0.0016710029,"MEAN_MOTION_DOT":-5.88e-6,"MEAN_MOTION_DDOT":0},{"OBJECT_NAME":"ONEWEB-0121","OBJECT_ID":"2020-100K","EPOCH":"2025-10-19T07:23:36.571488","MEAN_MOTION":13.12444377,"ECCENTRICITY":0.00016275,"INCLINATION":87.8962,"RA_OF_ASC_NODE":38.5019,"ARG_OF_PERICENTER":106.7334,"MEAN_ANOMALY":253.3973,"EPHEMERIS_TYPE":0,"CLASSIFICATION_TYPE":"U","NORAD_CAT_ID":47267,"ELEMENT_SET_NO":999,"REV_AT_EPOCH":23304,"BSTAR":-4.1018644e-5,"MEAN_MOTION_DOT":-2.0e-8,"MEAN_MOTION_DDOT":0}]
