ONEWEB-0082             
1 45452U 20020AE  25292.31170812  .00000118  00000+0  29630-3 0  9999
2 45452  87.8841  69.0038 0001403 102.4664 257.6621 13.11415234271100
ONEWEB-0050             
1 45453U 20020AF  25292.33336806  .00074198  00000+0  77911-2 0  9992
2 45453  88.7671 266.1705 0005496 104.4775 165.7054 14.89108055  5788
ONEWEB-0034             
1 45454U 20020AG  25292.10400048 -.00000575  00000+0 -16573-2 0  9995
2 45454  87.8831  69.0641 0001569  97.6202 262.5104 13.11416990270994
ONEWEB-0060             
1 45455U 20020AH  25292.30407912  .00000391  00000+0  10663-2 0  9993
2 45455  87.8820  69.0476 0001049 148.5179 211.6012 13.11416514270974
ONEWEB-0086             
1 45456U 20020AJ  25292.28288821  .00000289  00000+0  77845-3 0  9999
2 45456  87.8833  69.0254 0001720 123.2302 236.8991 13.11418693271030
ONEWEB-0088             
1 45457U 20020AK  25292.10825634 -.00000540  00000+0 -15601-2 0  9993
2 45457  87.8841  69.0101 0001501  94.3022 265.8277 13.11415597270943
ONEWEB-0102             
1 47258U 20100A   25292.30157704  .00000233  00000+0  61147-3 0  9995
2 47258  87.8963  38.5378 0001872 100.3835 259.7505 13.12443178233130
ONEWEB-0109             
1 47259U 20100B   25292.30968262 -.00000075  00000+0 -24493-3 0  9994
2 47259  87.8964  38.5041 0001833 102.8367 257.2967 13.12443607232965
ONEWEB-0110             
1 47260U 20100C   25292.25939179 -.00000508  00000+0 -14488-2 0  9998
2 47260  87.8961  38.4979 0001679 110.8459 249.2850 13.12443944233127
ONEWEB-0111             
1 47261U 20100D   25292.29023121  .00000454  00000+0  12258-2 0  9995
2 47261  87.8964  38.5094 0001748 101.2151 258.9174 13.12443349232966
ONEWEB-0114             
1 47262U 20100E   25292.32103288 -.00000503  00000+0 -14323-2 0  9995
2 47262  87.8968  38.4978 0002026  97.5027 262.6332 13.12442344232928
ONEWEB-0117             
1 47263U 20100F   25292.31292281 -.00000204  00000+0 -60376-3 0  9995
2 47263  87.8963  38.4970 0001667 102.3889 257.7427 13.12443931232931
ONEWEB-0118             
1 47264U 20100G   25292.26912264 -.00000173  00000+0 -51526-3 0  9992
2 47264  87.8965  38.5047 0001877  91.0055 269.1288 13.12443642233125
ONEWEB-0119             
1 47265U 20100H   25292.29670936  .00000400  00000+0  10760-2 0  9998
2 47265  87.8961  38.5363 0001730 102.6291 257.5031 13.12443826233101
ONEWEB-0120             
1 47266U 20100J   25292.31955100 -.00000588  00000+0 -16710-2 0  9991
2 47266  87.8965  38.5340 0001817 100.1045 260.0289 13.12442107233135
ONEWEB-0121             
1 47267U 20100K   25292.30806217 -.00000002  00000+0 -41019-4 0  9998
2 47267  87.8962  38.5019 0001627 106.7334 253.3973 13.12444377233044
